H1 CPF 01  gfz 2021 09 04 12  7472 terrasarx 
H2 0702601  6201 31698    2021 09 04 12 59 42 2021 09 09 00 00 42   120 1 1  0 0 0
H9
10 0 59462  59742.000000  0    4452848.146   1025262.819   5145278.468
10 0 59462  59862.000000  0    3808025.838    659717.849   5692218.324
10 0 59462  59982.000000  0    3090310.984    294573.984   6139046.784
10 0 59462  60102.000000  0    2312329.230    -62625.579   6477944.203
10 0 59462  60222.000000  0    1487875.763   -404711.272   6702986.180
10 0 59462  60342.000000  0     631667.605   -725029.357   6810242.840
10 0 59462  60462.000000  0    -240921.530  -1017570.305   6797842.794
10 0 59462  60582.000000  0   -1114137.016  -1277080.878   6666002.901
10 0 59462  60702.000000  0   -1972126.744  -1499158.640   6417023.711
10 0 59462  60822.000000  0   -2799226.786  -1680326.061   6055251.096
10 0 59462  60942.000000  0   -3580246.824  -1818084.608   5587007.678
10 0 59462  61062.000000  0   -4300753.950  -1910949.280   5020489.530
10 0 59462  61182.000000  0   -4947345.193  -1958461.405   4365627.769
10 0 59462  61302.000000  0   -5507904.167  -1961178.663   3633918.072
10 0 59462  61422.000000  0   -5971835.703  -1920642.369   2838221.299
10 0 59462  61542.000000  0   -6330274.995  -1839324.050   1992538.922
10 0 59462  61662.000000  0   -6576267.681  -1720552.299   1111763.920
10 0 59462  61782.000000  0   -6704911.356  -1568419.990    211410.965
10 0 59462  61902.000000  0   -6713456.521  -1387674.566   -692664.911
10 0 59462  62022.000000  0   -6601363.965  -1183594.496  -1584557.001
10 0 59462  62142.000000  0   -6370317.064   -961855.439  -2448595.158
10 0 59462  62262.000000  0   -6024189.977   -728390.191  -3269627.421
10 0 59462  62382.000000  0   -5568972.377   -489245.028  -4033289.988
10 0 59462  62502.000000  0   -5012653.332   -250435.407  -4726258.784
10 0 59462  62622.000000  0   -4365068.233    -17805.962  -5336478.109
10 0 59462  62742.000000  0   -3637712.979    203101.917  -5853363.579
10 0 59462  62862.000000  0   -2843529.692    407172.539  -6267974.895
10 0 59462  62982.000000  0   -1996671.310    589825.811  -6573157.912
10 0 59462  63102.000000  0   -1112248.136    747112.350  -6763657.377
10 0 59462  63222.000000  0    -206060.265    875793.573  -6836197.253
10 0 59462  63342.000000  0     705678.114    973404.779  -6789529.562
10 0 59462  63462.000000  0    1606620.774   1038300.077  -6624455.767
10 0 59462  63582.000000  0    2480577.067   1069679.981  -6343815.594
10 0 59462  63702.000000  0    3311797.698   1067600.412  -5952443.070
10 0 59462  63822.000000  0    4085254.675   1032962.703  -5457090.628
10 0 59462  63942.000000  0    4786912.167    967484.802  -4866324.111
10 0 59462  64062.000000  0    5403985.521    873654.570  -4190386.281
10 0 59462  64182.000000  0    5925181.615    754665.412  -3441029.048
10 0 59462  64302.000000  0    6340915.336    614335.021  -2631317.450
10 0 59462  64422.000000  0    6643498.458    457009.407  -1775407.452
10 0 59462  64542.000000  0    6827295.265    287453.458   -888298.793
10 0 59462  64662.000000  0    6888837.875    110730.802     14431.231
10 0 59462  64782.000000  0    6826900.271    -67923.434    916906.456
10 0 59462  64902.000000  0    6642528.447   -243235.259   1803239.033
10 0 59462  65022.000000  0    6339024.404   -410025.334   2657818.506
10 0 59462  65142.000000  0    5921883.419   -563340.350   3465595.884
10 0 59462  65262.000000  0    5398687.060   -698578.348   4212354.396
10 0 59462  65382.000000  0    4778958.017   -811605.043   4884963.713
10 0 59462  65502.000000  0    4073975.928   -898859.276   5471612.450
10 0 59462  65622.000000  0    3296561.541   -957442.643   5962012.922
10 0 59462  65742.000000  0    2460835.305   -985193.877   6347577.131
10 0 59462  65862.000000  0    1581955.040   -980745.798   6621561.323
10 0 59462  65982.000000  0     675836.796   -943564.110   6779179.232
10 0 59462  66102.000000  0    -241136.197   -873966.463   6817679.864
10 0 59462  66222.000000  0   -1152409.463   -773122.365   6736391.194
10 0 59462  66342.000000  0   -2041554.662   -643033.674   6536730.727
10 0 59462  66462.000000  0   -2892564.106   -486495.572   6222182.322
10 0 59462  66582.000000  0   -3690138.886   -307038.923   5798240.555
10 0 59462  66702.000000  0   -4419967.183   -108855.000   5272321.304
10 0 59462  66822.000000  0   -5068987.136    103296.296   4653638.069
10 0 59462  66942.000000  0   -5625628.435    324192.695   3953045.422
10 0 59462  67062.000000  0   -6080027.478    548268.952   3182851.630
10 0 59462  67182.000000  0   -6424211.923    769746.599   2356604.254
10 0 59462  67302.000000  0   -6652250.465    982771.280   1488850.027
10 0 59462  67422.000000  0   -6760363.494   1181553.698    594874.073
10 0 59462  67542.000000  0   -6746991.104   1360511.336   -309577.296
10 0 59462  67662.000000  0   -6612815.130   1514406.934  -1208583.385
10 0 59462  67782.000000  0   -6360735.762   1638479.518  -2086337.666
10 0 59462  67902.000000  0   -5995805.264   1728566.351  -2927433.028
10 0 59462  68022.000000  0   -5525117.871   1781211.703  -3717139.011
10 0 59462  68142.000000  0   -4957659.528   1793758.668  -4441661.830
10 0 59462  68262.000000  0   -4304123.861   1764423.395  -5088382.634
10 0 59462  68382.000000  0   -3576699.211   1692350.026  -5646070.487
10 0 59462  68502.000000  0   -2788833.324   1577645.709  -6105067.665
10 0 59462  68622.000000  0   -1954979.952   1421394.830  -6457446.668
10 0 59462  68742.000000  0   -1090330.903   1225653.139  -6697135.489
10 0 59462  68862.000000  0    -210541.504    993421.270  -6820010.496
10 0 59462  68982.000000  0     668546.567    728599.335  -6823958.813
10 0 59462  69102.000000  0    1531182.868    435922.871  -6708912.774
10 0 59462  69222.000000  0    2361985.248    120879.863  -6476851.328
10 0 59462  69342.000000  0    3146208.081   -210388.882  -6131769.457
10 0 59462  69462.000000  0    3870000.985   -551205.137  -5679616.226
10 0 59462  69582.000000  0    4520651.504   -894482.809  -5128201.754
10 0 59462  69702.000000  0    5086811.987  -1232870.155  -4487075.006
10 0 59462  69822.000000  0    5558704.895  -1558902.267  -3767369.159
10 0 59462  69942.000000  0    5928301.323  -1865160.343  -2981617.349
10 0 59462  70062.000000  0    6189469.087  -2144435.036  -2143540.584
10 0 59462  70182.000000  0    6338085.894  -2389890.099  -1267810.518
10 0 59462  70302.000000  0    6372114.331  -2595221.740   -369791.721
10 0 59462  70422.000000  0    6291636.519  -2754810.215    534732.229
10 0 59462  70542.000000  0    6098846.646  -2863859.185   1429843.225
10 0 59462  70662.000000  0    5798000.686  -2918519.219   2299778.357
10 0 59462  70782.000000  0    5395323.111  -2915992.308   3129216.262
10 0 59462  70902.000000  0    4898874.782  -2854613.891   3903554.892
10 0 59462  71022.000000  0    4318385.184  -2733910.198   4609172.479
10 0 59462  71142.000000  0    3665055.873  -2554631.965   5233669.724
10 0 59462  71262.000000  0    2951335.222  -2318762.240   5766088.223
10 0 59462  71382.000000  0    2190673.487  -2029497.394   6197098.593
10 0 59462  71502.000000  0    1397263.959  -1691203.828   6519158.634
10 0 59462  71622.000000  0     585774.352  -1309350.920   6726639.443
10 0 59462  71742.000000  0    -228926.360   -890421.086   6815917.797
10 0 59462  71862.000000  0   -1032040.072   -441798.688   6785434.663
10 0 59462  71982.000000  0   -1809106.983     28359.892   6635720.442
10 0 59462  72102.000000  0   -2546264.784    511274.100   6369386.469
10 0 59462  72222.000000  0   -3230495.784    997702.281   5991082.863
10 0 59462  72342.000000  0   -3849858.564   1478117.331   5507422.991
10 0 59462  72462.000000  0   -4393701.004   1942892.432   4926874.593
10 0 59462  72582.000000  0   -4852850.471   2382493.959   4259617.322
10 0 59462  72702.000000  0   -5219775.631   2787677.740   3517367.817
10 0 59462  72822.000000  0   -5488717.065   3149683.510   2713176.087
10 0 59462  72942.000000  0   -5655784.410   3460424.139   1861196.341
10 0 59462  73062.000000  0   -5719017.759   3712665.797    976434.446
10 0 59462  73182.000000  0   -5678408.793   3900192.403     74476.141
10 0 59462  73302.000000  0   -5535882.601   4017950.582   -828795.273
10 0 59462  73422.000000  0   -5295241.007   4062172.242  -1717487.565
10 0 59462  73542.000000  0   -4962067.432   4030471.092  -2575989.188
10 0 59462  73662.000000  0   -4543595.077   3921909.423  -3389250.541
10 0 59462  73782.000000  0   -4048544.259   3737034.814  -4143051.142
10 0 59462  73902.000000  0   -3486933.696   3477886.833  -4824246.898
10 0 59462  74022.000000  0   -2869870.793   3147974.049  -5420993.879
10 0 59462  74142.000000  0   -2209328.161   2752223.173  -5922945.456
10 0 59462  74262.000000  0   -1517908.262   2296901.353  -6321422.661
10 0 59462  74382.000000  0    -808601.757   1789512.390  -6609552.311
10 0 59462  74502.000000  0     -94546.060   1238671.488  -6782374.050
10 0 59462  74622.000000  0     611212.943    653959.341  -6836916.257
10 0 59462  74742.000000  0    1295953.246     45758.798  -6772243.022
10 0 59462  74862.000000  0    1947501.799   -574926.048  -6589468.032
10 0 59462  74982.000000  0    2554445.289  -1196663.778  -6291736.602
10 0 59462  75102.000000  0    3106327.031  -1807800.841  -5884177.604
10 0 59462  75222.000000  0    3593825.926  -2396674.555  -5373824.693
10 0 59462  75342.000000  0    4008917.433  -2951833.940  -4769507.129
10 0 59462  75462.000000  0    4345009.876  -3462262.698  -4081706.507
10 0 59462  75582.000000  0    4597054.052  -3917598.317  -3322385.024
10 0 59462  75702.000000  0    4761626.292  -4308345.156  -2504786.052
10 0 59462  75822.000000  0    4836980.764  -4626076.009  -1643207.419
10 0 59462  75942.000000  0    4823069.360  -4863617.406   -752752.143
10 0 59462  76062.000000  0    4721526.686  -5015213.407    150940.135
10 0 59462  76182.000000  0    4535620.659  -5076662.217   1051974.255
99
